KUIPER-00252            
1 67157U 25301AA  26011.92235542  .00031198  00000+0  91166-3 0  9996
2 67157  51.8675 339.7737 0009943 198.6302 161.4321 15.34978676  5002
KUIPER-00261            
1 67158U 25301AB  26011.90182210  .00033344  00000+0  93662-3 0  9996
2 67158  51.8713 339.6484 0006560 171.6182 188.4915 15.36209557  5008
KUIPER-00265            
1 67159U 25301AC  26011.91667824 -.01326989  00000+0 -59462-1 0  9998
2 67159  51.8801 339.8305 0001645 173.5911 161.2436 15.23914041  5038
